#aV2007  1  9  0  0   .00000000      96 DD+AD WGS84 FIT  NGA
## 1409 172800.00000000   900.00000000 54109  .0000000000000
+   30     1  2  3  4  5  6  7  8  9 10 11 12 13 14 16 17 18
+         19 20 21 22 23 24 25 26 27 28 29 30 31  0  0  0  0
+          0  0  0  0  0  0  0  0  0  0  0  0  0  0  0  0  0
+          0  0  0  0  0  0  0  0  0  0  0  0  0  0  0  0  0
+          0  0  0  0  0  0  0  0  0  0  0  0  0  0  0  0  0
++         0  0  0  0  0  0  0  0  0  0  0  0  0  0  0  0  0
++         0  0  0  0  0  0  0  0  0  0  0  0  0  0  0  0  0
++         0  0  0  0  0  0  0  0  0  0  0  0  0  0  0  0  0
++         0  0  0  0  0  0  0  0  0  0  0  0  0  0  0  0  0
++         0  0  0  0  0  0  0  0  0  0  0  0  0  0  0  0  0
%c cc cc ccc ccc cccc cccc cccc cccc ccccc ccccc ccccc ccccc
%c cc cc ccc ccc cccc cccc cccc cccc ccccc ccccc ccccc ccccc
%f  0.0000000  0.000000000  0.00000000000  0.000000000000000
%f  0.0000000  0.000000000  0.00000000000  0.000000000000000
%i    0    0    0    0      0      0      0      0         0
%i    0    0    0    0      0      0      0      0         0
/*      NGA, ST. LOUIS,MO.                                  
/*   EPHEMERIS COMPUTED FROM  3 DAYS OF DATA                
/* CCCCCCCCCCCCCCCCCCCCCCCCCCCCCCCCCCCCCCCCCCCCCCCCCCCCCCCCC
/* CCCCCCCCCCCCCCCCCCCCCCCCCCCCCCCCCCCCCCCCCCCCCCCCCCCCCCCCC
*  2007  1  9  2 45   .00000000                                                 
P  1 -20863.956563 -13612.502714  -9092.158459    100.315922                    
V  1  -6767.332355  -9813.119681  29480.987273       .022187                    
P  2  14902.638800   4712.843926 -21716.372028     71.583861                    
V  2  -6626.454288  26235.632548    912.912256       .034563                    
P  3 -22980.464448  -8322.276438  10585.586339     -5.184286                    
V  3  -8641.366628 -11097.432358 -26643.887173       .060023                    
P  4   8178.570424  18032.370394 -17586.262052    353.076814                    
V  4  -7914.229814  21053.592257  18328.127448       .028790                    
P  5  20803.304946 -14251.660149  -8328.875903      1.245627                    
V  5  10840.421914   -520.805985  28911.816205       .159465                    
P  6   2022.578295 -17707.478163 -19491.323403    466.146840                    
V  6  19692.432093  15906.873936 -12343.270187      -.219557                    
P  7  -1615.439562 -19035.741410 -18048.113808    451.761668                    
V  7  19307.216629  14031.131832 -16277.849460      -.106593                    
P  8     63.417876  24112.666711  10505.663774    -92.574091                    
V  8  -6279.398199  12352.650420 -28410.339555      -.011442                    
P  9  14360.078441 -15329.525009  15533.829440     52.303661                    
V  9  -2271.544147  20867.870690  22120.260071       .017435                    
P 10  25370.132223   -446.521932  -8495.061464     95.610094                    
V 10  -9719.716957   4549.361398 -29310.534601       .006413                    
P 11 -13259.554651  17671.048310  14447.355620      2.835878                    
V 11  -1952.410513 -19099.589313  21714.422494       .013877                    
P 12  22247.833554 -12035.923116  -7933.316348    -67.549315                    
V 12  10566.117710   -211.369057  29597.811575       .070968                    
P 13    361.700570  18458.046507 -19201.264385    130.849470                    
V 13 -17289.375638 -16808.835473 -16516.802252       .039043                    
P 14 -15089.601904 -21054.993388   6120.154301      4.140291                    
V 14   6650.585677   4149.978317  31037.040869       .011704                    
P 16 -22891.647473  -3328.250697 -13082.653893    110.417547                    
V 16  15584.380036  -6345.269676 -25373.732691       .038589                    
P 17  15337.009014  20951.028018   5879.325464     83.171712                    
V 17  -7170.106442  -3343.163178  30471.748333      -.014983                    
P 18   4771.693605 -16103.588714  20635.143682   -253.856722                    
V 18  25560.449165  -4882.186772 -10098.771134      -.000938                    
P 19 -18684.433345   -777.540617  18991.182343     54.417937                    
V 19 -14968.487934 -18675.864997 -15476.773349       .044507                    
P 20 -20311.331092  13598.778578 -10429.911845    -21.950117                    
V 20 -13352.414512   1124.190640  27753.677409      -.001044                    
P 21   4085.700788 -25561.756870   4515.460732     67.817648                    
V 21   5300.865110  -4411.201661 -30950.984542       .011845                    
P 22  -8937.023995 -13459.398650  21243.948383    160.836900                    
V 22  25833.595725  -6492.397032   6787.993211       .023347                    
P 23 -10374.043625  10913.800723 -21956.746281    145.330376                    
V 23 -19839.766669 -19278.889268   -396.658870       .012759                    
P 24  16580.561371  -8426.441596 -18903.143693     67.046924                    
V 24  -6009.792426  23569.916943 -15320.166366       .031660                    
P 25 -12204.059912 -12075.789764 -19815.778926    387.755381                    
V 25   5379.880372 -25592.617645  12200.788642      -.097769                    
P 26  19103.296690   2851.910416  18075.517871    -85.305669                    
V 26  15649.910753  17574.474049 -18332.176518      -.176202                    
P 27  -3902.758207  26097.215605   1597.565031     87.571702                    
V 27  -3190.044545    690.029848 -31884.803622       .020164                    
P 28   4918.253533  14574.744029  21972.468397     10.027615                    
V 28 -26314.150158   6679.440298   1131.889315      -.009298                    
P 29  20890.516868   5796.805651  15798.674123    305.021782                    
V 29  13181.941793  14353.700962 -22702.856178       .176017                    
P 30  11900.059269 -16734.471434 -17089.707039     21.989777                    
V 30  20817.242889  -4527.140043  19383.346524       .011458                    
P 31  -9787.438687 -15495.279040 -19007.402502     -7.091978                    
V 31   7410.826102 -23473.809878  15208.803068       .059250                    
EOF
